{"epoch":1784799577,"count":18318,"objects":[{"id":"44322","name":"RCM 1","type":"PAYLOAD","l1":"1 44322U 19033A   26204.00536236  .00000470  00000-0  51128-4 0  9992","l2":"2 44322  97.7600 210.9467 0001532  92.4947 293.5321 14.92591353387422"},{"id":"44323","name":"RCM 3","type":"PAYLOAD","l1":"1 44323U 19033B   26203.95611525  .00000067  00000-0  11958-4 0  9990","l2":"2 44323  97.7600 210.9926 0001511  92.7703 267.3689 14.92587013387438"},{"id":"44324","name":"RCM 2","type":"PAYLOAD","l1":"1 44324U 19033C   26203.97832208  .00000760  00000-0  79342-4 0  9997","l2":"2 44324  97.7599 210.9647 0001499  91.5436 268.5955 14.92592528387426"}]}