{"fetched_at":"2026-07-23T07:05:59.499Z","source":"https://celestrak.org/NORAD/elements/gp.php?NAME=RCM&FORMAT=JSON","constellation":"rcm","records":[{"OBJECT_NAME":"RCM-1","OBJECT_ID":"2019-033A","EPOCH":"2026-07-23T00:07:43.307904","CLASSIFICATION_TYPE":"U","MEAN_MOTION":14.92591353,"ECCENTRICITY":0.00015317,"INCLINATION":97.76,"RA_OF_ASC_NODE":210.9467,"ARG_OF_PERICENTER":92.4947,"MEAN_ANOMALY":293.5321,"EPHEMERIS_TYPE":0,"NORAD_CAT_ID":44322,"ELEMENT_SET_NO":999,"REV_AT_EPOCH":38742,"BSTAR":0.000051128296,"MEAN_MOTION_DOT":0.0000047,"MEAN_MOTION_DDOT":0},{"OBJECT_NAME":"RCM-3","OBJECT_ID":"2019-033B","EPOCH":"2026-07-22T22:56:48.357600","CLASSIFICATION_TYPE":"U","MEAN_MOTION":14.92587013,"ECCENTRICITY":0.00015111,"INCLINATION":97.76,"RA_OF_ASC_NODE":210.9926,"ARG_OF_PERICENTER":92.7703,"MEAN_ANOMALY":267.3689,"EPHEMERIS_TYPE":0,"NORAD_CAT_ID":44323,"ELEMENT_SET_NO":999,"REV_AT_EPOCH":38743,"BSTAR":0.000011957785,"MEAN_MOTION_DOT":6.7e-7,"MEAN_MOTION_DDOT":0},{"OBJECT_NAME":"RCM-2","OBJECT_ID":"2019-033C","EPOCH":"2026-07-22T23:28:47.027712","CLASSIFICATION_TYPE":"U","MEAN_MOTION":14.92592528,"ECCENTRICITY":0.00014994,"INCLINATION":97.7599,"RA_OF_ASC_NODE":210.9647,"ARG_OF_PERICENTER":91.5436,"MEAN_ANOMALY":268.5955,"EPHEMERIS_TYPE":0,"NORAD_CAT_ID":44324,"ELEMENT_SET_NO":999,"REV_AT_EPOCH":38742,"BSTAR":0.000079341574,"MEAN_MOTION_DOT":0.0000076,"MEAN_MOTION_DDOT":0}]}
